HIERARCHY
ROOT Root
{
	OFFSET 0.0 0.0 0.0
	CHANNELS 6 Xposition Yposition Zposition Zrotation Yrotation Xrotation
	JOINT Hips
	{
		OFFSET -0.00455359416082507 101.2815786611181 1.7763568394002505e-15
		CHANNELS 3 Zrotation Yrotation Xrotation
		JOINT Spine1
		{
			OFFSET 5.003911400579952 -0.037094277028409506 -0.013727320524659803
			CHANNELS 3 Zrotation Yrotation Xrotation
			JOINT Spine2
			{
				OFFSET 7.125363905407838 -4.6091316896479384e-07 -1.1643035841002458e-08
				CHANNELS 3 Zrotation Yrotation Xrotation
				JOINT Chest
				{
					OFFSET 7.594028111792085 9.19036741819923e-07 -3.288001315659983e-08
					CHANNELS 3 Zrotation Yrotation Xrotation
					JOINT Neck1
					{
						OFFSET 26.3130893701354 -0.4602707603845828 -0.18167225106086227
						CHANNELS 3 Zrotation Yrotation Xrotation
						JOINT Neck2
						{
							OFFSET 8.045913018469491 3.5501933126624863e-07 -2.8657118900099476e-09
							CHANNELS 3 Zrotation Yrotation Xrotation
							JOINT Head
							{
								OFFSET 6.4327755892413165 9.487844465638773e-08 4.1669490635776185e-08
								CHANNELS 3 Zrotation Yrotation Xrotation
								JOINT HeadEnd
								{
									OFFSET 16.169776303110865 0.06450820152923598 0.003620264476585311
									CHANNELS 3 Zrotation Yrotation Xrotation
										End Site
										{
											OFFSET 0.0 0.0 0.0
										}
								}
								JOINT Jaw
								{
									OFFSET 0.1087408403022323 3.129381983741226 0.002639373529267436
									CHANNELS 3 Zrotation Yrotation Xrotation
										End Site
										{
											OFFSET 0.0 0.0 0.0
										}
								}
								JOINT LeftEye
								{
									OFFSET 4.451731059213444 8.166361899560535 3.206392866100086
									CHANNELS 3 Zrotation Yrotation Xrotation
										End Site
										{
											OFFSET 0.0 0.0 0.0
										}
								}
								JOINT RightEye
								{
									OFFSET 4.436896651397717 8.13576138876456 -3.222429288833129
									CHANNELS 3 Zrotation Yrotation Xrotation
										End Site
										{
											OFFSET 0.0 0.0 0.0
										}
								}
							}
						}
					}
					JOINT LeftShoulder
					{
						OFFSET 23.218931450014452 5.195583528547754 1.6216562236215641
						CHANNELS 3 Zrotation Yrotation Xrotation
						JOINT LeftArm
						{
							OFFSET 15.902119246518122 8.969542024672705e-07 -1.625673888838719e-06
							CHANNELS 3 Zrotation Yrotation Xrotation
							JOINT LeftForeArm
							{
								OFFSET 28.739311797873277 9.301849368537063e-07 1.6006790986011765e-06
								CHANNELS 3 Zrotation Yrotation Xrotation
								JOINT LeftHand
								{
									OFFSET 27.093985557237183 -1.3786909141000336e-06 1.7116798289862345e-07
									CHANNELS 3 Zrotation Yrotation Xrotation
									JOINT LeftHandThumb1
									{
										OFFSET 2.2767832127044443 3.380275492962973 0.8338393865451224
										CHANNELS 3 Zrotation Yrotation Xrotation
										JOINT LeftHandThumb2
										{
											OFFSET 4.705310603613668 7.82012619993111e-07 -3.895690028343779e-07
											CHANNELS 3 Zrotation Yrotation Xrotation
											JOINT LeftHandThumb3
											{
												OFFSET 2.798515146907377 -6.568740218426683e-09 2.8679396320008266e-06
												CHANNELS 3 Zrotation Yrotation Xrotation
												JOINT LeftHandThumbEnd
												{
													OFFSET 3.180793567784292 3.796224973484641e-06 -3.819304964736148e-06
													CHANNELS 3 Zrotation Yrotation Xrotation
														End Site
														{
															OFFSET 0.0 0.0 0.0
														}
												}
											}
										}
									}
									JOINT LeftHandIndex1
									{
										OFFSET 3.247787628862895 2.3526781164557242 0.1371918008109958
										CHANNELS 3 Zrotation Yrotation Xrotation
										JOINT LeftHandIndex2
										{
											OFFSET 6.367095710265389 9.936381335506894e-07 5.433008709587739e-08
											CHANNELS 3 Zrotation Yrotation Xrotation
											JOINT LeftHandIndex3
											{
												OFFSET 3.662364883913014 -8.873588530633469e-10 4.891134608442371e-08
												CHANNELS 3 Zrotation Yrotation Xrotation
												JOINT LeftHandIndex4
												{
													OFFSET 2.3292426664248893 3.5657909187580827e-06 -3.816714780668917e-06
													CHANNELS 3 Zrotation Yrotation Xrotation
													JOINT LeftHandIndexEnd
													{
														OFFSET 2.7678241362313827 4.7110512468862e-07 2.391598741269263e-08
														CHANNELS 3 Zrotation Yrotation Xrotation
															End Site
															{
																OFFSET 0.0 0.0 0.0
															}
													}
												}
											}
										}
									}
									JOINT LeftHandMiddle1
									{
										OFFSET 3.163612483460753 0.9450234409290736 -0.40611260590745246
										CHANNELS 3 Zrotation Yrotation Xrotation
										JOINT LeftHandMiddle2
										{
											OFFSET 6.276790231408256 1.8876050456029247e-06 2.0240605635990505e-08
											CHANNELS 3 Zrotation Yrotation Xrotation
											JOINT LeftHandMiddle3
											{
												OFFSET 4.356521313123466 -7.346637245220222e-07 3.821389896074834e-06
												CHANNELS 3 Zrotation Yrotation Xrotation
												JOINT LeftHandMiddle4
												{
													OFFSET 2.9968774941194027 -4.154623680641123e-07 7.674242112898355e-06
													CHANNELS 3 Zrotation Yrotation Xrotation
													JOINT LeftHandMiddleEnd
													{
														OFFSET 2.3232563347456505 2.8469106858608484e-06 -3.822743707360132e-06
														CHANNELS 3 Zrotation Yrotation Xrotation
															End Site
															{
																OFFSET 0.0 0.0 0.0
															}
													}
												}
											}
										}
									}
									JOINT LeftHandRing1
									{
										OFFSET 2.8826065753050614 -0.30916216210596303 0.10744478293176485
										CHANNELS 3 Zrotation Yrotation Xrotation
										JOINT LeftHandRing2
										{
											OFFSET 6.033199109306601 -1.0039401692196748e-06 3.823825750259857e-06
											CHANNELS 3 Zrotation Yrotation Xrotation
											JOINT LeftHandRing3
											{
												OFFSET 4.3505799874172055 2.348317819755863e-06 -9.24248411138251e-09
												CHANNELS 3 Zrotation Yrotation Xrotation
												JOINT LeftHandRing4
												{
													OFFSET 2.651322214908845 1.8927698621773459e-06 -7.606833776208077e-06
													CHANNELS 3 Zrotation Yrotation Xrotation
													JOINT LeftHandRingEnd
													{
														OFFSET 1.9376639406599736 1.4282787184072276e-06 -3.8159697908213275e-06
														CHANNELS 3 Zrotation Yrotation Xrotation
															End Site
															{
																OFFSET 0.0 0.0 0.0
															}
													}
												}
											}
										}
									}
									JOINT LeftHandPinky1
									{
										OFFSET 2.865314493196351 -1.525436355639016 0.5756873887341669
										CHANNELS 3 Zrotation Yrotation Xrotation
										JOINT LeftHandPinky2
										{
											OFFSET 5.549361644607188 -1.4879529253164492e-07 -7.643727883532847e-06
											CHANNELS 3 Zrotation Yrotation Xrotation
											JOINT LeftHandPinky3
											{
												OFFSET 3.070974919844403 3.2695016471961935e-07 -3.7857342363167845e-06
												CHANNELS 3 Zrotation Yrotation Xrotation
												JOINT LeftHandPinky4
												{
													OFFSET 1.5496728912123672 7.912107493623921e-07 4.474429715628503e-10
													CHANNELS 3 Zrotation Yrotation Xrotation
													JOINT LeftHandPinkyEnd
													{
														OFFSET 1.9521243241325692 -4.98033486451277e-07 -9.942937140294816e-09
														CHANNELS 3 Zrotation Yrotation Xrotation
															End Site
															{
																OFFSET 0.0 0.0 0.0
															}
													}
												}
											}
										}
									}
								}
							}
						}
					}
					JOINT RightShoulder
					{
						OFFSET 23.161720530932513 5.296126077924306 -1.380114462130507
						CHANNELS 3 Zrotation Yrotation Xrotation
						JOINT RightArm
						{
							OFFSET -16.027199284187702 -3.741135197188328e-07 1.067356367911998e-05
							CHANNELS 3 Zrotation Yrotation Xrotation
							JOINT RightForeArm
							{
								OFFSET -28.736644989037067 3.678528576633866e-06 -2.630790163493657e-07
								CHANNELS 3 Zrotation Yrotation Xrotation
								JOINT RightHand
								{
									OFFSET -27.13362189899469 1.490529916603478e-06 -1.7262871665479906e-07
									CHANNELS 3 Zrotation Yrotation Xrotation
									JOINT RightHandThumb1
									{
										OFFSET -2.2743308100481983 -3.3510372306893217 -0.8306695931939032
										CHANNELS 3 Zrotation Yrotation Xrotation
										JOINT RightHandThumb2
										{
											OFFSET -4.703596396374433 -4.494505787988601e-06 1.3401506038235311e-06
											CHANNELS 3 Zrotation Yrotation Xrotation
											JOINT RightHandThumb3
											{
												OFFSET -2.794937244465089 -3.798955532374748e-06 -2.8632026776165276e-06
												CHANNELS 3 Zrotation Yrotation Xrotation
												JOINT RightHandThumbEnd
												{
													OFFSET -3.1838552075434023 3.831272778143102e-06 9.489718895139276e-07
													CHANNELS 3 Zrotation Yrotation Xrotation
														End Site
														{
															OFFSET 0.0 0.0 0.0
														}
												}
											}
										}
									}
									JOINT RightHandIndex1
									{
										OFFSET -3.253498717787238 -2.3375512803928657 -0.12766658950329202
										CHANNELS 3 Zrotation Yrotation Xrotation
										JOINT RightHandIndex2
										{
											OFFSET -6.3444371550066165 -1.0202549916016324e-08 -8.882767588147544e-08
											CHANNELS 3 Zrotation Yrotation Xrotation
											JOINT RightHandIndex3
											{
												OFFSET -3.6548732226908385 1.610257149842198e-08 -7.669501428608783e-06
												CHANNELS 3 Zrotation Yrotation Xrotation
												JOINT RightHandIndex4
												{
													OFFSET -2.3275873784283334 -4.517432932171772e-07 -2.4004776832953212e-08
													CHANNELS 3 Zrotation Yrotation Xrotation
													JOINT RightHandIndexEnd
													{
														OFFSET -2.770002715350685 3.348636074207434e-06 7.626153035289462e-06
														CHANNELS 3 Zrotation Yrotation Xrotation
															End Site
															{
																OFFSET 0.0 0.0 0.0
															}
													}
												}
											}
										}
									}
									JOINT RightHandMiddle1
									{
										OFFSET -3.168224850495861 -0.9447651785993365 0.41176220360097204
										CHANNELS 3 Zrotation Yrotation Xrotation
										JOINT RightHandMiddle2
										{
											OFFSET -6.266693248387838 -8.63492608971228e-07 -3.905502040879583e-06
											CHANNELS 3 Zrotation Yrotation Xrotation
											JOINT RightHandMiddle3
											{
												OFFSET -4.348903813251098 -3.057054436261808e-07 -8.48220054194826e-08
												CHANNELS 3 Zrotation Yrotation Xrotation
												JOINT RightHandMiddle4
												{
													OFFSET -3.0002423713064132 1.8868824669393547e-06 -3.858331467654352e-06
													CHANNELS 3 Zrotation Yrotation Xrotation
													JOINT RightHandMiddleEnd
													{
														OFFSET -2.3214789623582703 -3.793415281450052e-06 -3.825875637630816e-06
														CHANNELS 3 Zrotation Yrotation Xrotation
															End Site
															{
																OFFSET 0.0 0.0 0.0
															}
													}
												}
											}
										}
									}
									JOINT RightHandRing1
									{
										OFFSET -2.885654823687929 0.2932605821077914 -0.1192322388287721
										CHANNELS 3 Zrotation Yrotation Xrotation
										JOINT RightHandRing2
										{
											OFFSET -6.0328372149660865 -9.464901395972447e-08 -3.907017259052736e-06
											CHANNELS 3 Zrotation Yrotation Xrotation
											JOINT RightHandRing3
											{
												OFFSET -4.3388122603873995 4.0152581792796127e-07 -3.900732707506904e-06
												CHANNELS 3 Zrotation Yrotation Xrotation
												JOINT RightHandRing4
												{
													OFFSET -2.654904634193869 -3.8104387876103374e-06 -3.8132242536903505e-06
													CHANNELS 3 Zrotation Yrotation Xrotation
													JOINT RightHandRingEnd
													{
														OFFSET -1.9351236558380833 4.7515565171352137e-07 3.820667160425728e-06
														CHANNELS 3 Zrotation Yrotation Xrotation
															End Site
															{
																OFFSET 0.0 0.0 0.0
															}
													}
												}
											}
										}
									}
									JOINT RightHandPinky1
									{
										OFFSET -2.8662417048685427 1.5039044415960383 -0.6052704743287052
										CHANNELS 3 Zrotation Yrotation Xrotation
										JOINT RightHandPinky2
										{
											OFFSET -5.553178882264433 -9.114839905066674e-07 -1.6005299130483763e-07
											CHANNELS 3 Zrotation Yrotation Xrotation
											JOINT RightHandPinky3
											{
												OFFSET -3.062666031493521 -9.703960675011558e-07 -3.829766683338676e-06
												CHANNELS 3 Zrotation Yrotation Xrotation
												JOINT RightHandPinky4
												{
													OFFSET -1.5465297981134682 2.1988785583459958e-06 3.809164780932406e-06
													CHANNELS 3 Zrotation Yrotation Xrotation
													JOINT RightHandPinkyEnd
													{
														OFFSET -1.9523429757875448 -9.505921383379246e-09 -3.8056984408285643e-06
														CHANNELS 3 Zrotation Yrotation Xrotation
															End Site
															{
																OFFSET 0.0 0.0 0.0
															}
													}
												}
											}
										}
									}
								}
							}
						}
					}
				}
			}
		}
		JOINT LeftLeg
		{
			OFFSET -8.443106660459435 2.5676046125469085 10.043214107986039
			CHANNELS 3 Zrotation Yrotation Xrotation
			JOINT LeftShin
			{
				OFFSET 43.229202433256475 1.5230611971617236e-07 -8.203140957618871e-07
				CHANNELS 3 Zrotation Yrotation Xrotation
				JOINT LeftFoot
				{
					OFFSET 42.2986190582694 3.3716420753115983e-06 1.0844841931145766e-06
					CHANNELS 3 Zrotation Yrotation Xrotation
					JOINT LeftToeBase
					{
						OFFSET 14.165860770755163 -2.698227854480706e-07 4.42565628588909e-08
						CHANNELS 3 Zrotation Yrotation Xrotation
						JOINT LeftToeEnd
						{
							OFFSET 6.714102020106843 -0.23446131752019284 2.782284447278016e-08
							CHANNELS 3 Zrotation Yrotation Xrotation
								End Site
								{
									OFFSET 0.0 0.0 0.0
								}
						}
					}
				}
			}
		}
		JOINT RightLeg
		{
			OFFSET -8.30392309116607 2.592729108204437 -10.047278541433638
			CHANNELS 3 Zrotation Yrotation Xrotation
			JOINT RightShin
			{
				OFFSET -43.36968813416273 3.07925370979234e-07 8.186099780260747e-07
				CHANNELS 3 Zrotation Yrotation Xrotation
				JOINT RightFoot
				{
					OFFSET -42.26079479727718 1.214365321189348e-06 1.7749845202530423e-06
					CHANNELS 3 Zrotation Yrotation Xrotation
					JOINT RightToeBase
					{
						OFFSET -14.222250599984397 -1.4072680176724361e-07 1.0093948255018859e-07
						CHANNELS 3 Zrotation Yrotation Xrotation
						JOINT RightToeEnd
						{
							OFFSET -6.6600644802266675 0.2325741722542558 -1.853420057429389e-06
							CHANNELS 3 Zrotation Yrotation Xrotation
								End Site
								{
									OFFSET 0.0 0.0 0.0
								}
						}
					}
				}
			}
		}
	}
}
MOTION
Frames: 2
Frame Time: 0.041666666666666664
0.0 0.0 0.0 0.0 0.0 0.0 90.17133356325002 -1.0877675693422233 90.00000000000003 0.29828457157362726 -0.11038293762590377 0.03954168686131545 -10.502881315784622 -0.4705557139050183 -0.025222613763319437 9.564471719080252 0.09312541160985854 -2.082125010081093 19.653774246856134 -0.15397472616607993 2.6651774390527816 -2.4768712980935996 -0.6715457948408774 0.04117503231514606 -24.156804243159616 0.04246279485639823 -0.5295281078682991 -1.6879927175180281e-06 -8.428644745501082e-15 -8.590059974398887e-15 -1.6886716270334113e-06 -5.13567925937809e-13 1.8872150515251107e-12 -1.688671635551778e-06 -5.088887213339611e-13 1.8797078242441466e-12 -1.688671635551778e-06 -5.088887213339611e-13 1.8797078242441466e-12 -89.68273369243764 -66.87415133308546 89.18114386722972 20.97863782586216 1.2219538413547053e-05 0.0005492514956957141 0.010327661645971951 -2.3819256351175822e-05 -0.00048716997877000214 1.4397028733272499 1.1493135690103664 7.615850393025106 24.18754792360579 -17.862027256216923 49.08976789067286 -28.690670690408467 -9.093979825073507 31.29385152424537 0.0 0.0 0.0 0.0 0.0 0.0 -0.6097740758785677 -1.7956507789086564 -3.889339460106648 -0.6372837649520622 0.5095936451258372 -3.7183377295311986 0.0 0.0 0.0 -6.465959464130059 -4.10364185692941 -3.6619846281510715 0.0 0.0 0.0 -10.634525927649836 -5.686969230234066 -3.5655986660022463 9.623231547049484 3.6922223272205104 -3.1358933357591576 0.0 0.0 0.0 -2.117661995671259 -7.787209445456547 -3.476572841507625 0.0 0.0 0.0 -13.982705563490944 -7.15019637341256 -2.875053467184348 13.023036015061491 5.0028728613806965 -3.1958523161514583 0.0 0.0 0.0 -0.04696983996609891 2.686896219588593 2.499143237695963 0.0 0.0 0.0 -20.302579957607737 -20.27427317940608 -3.181567788425659 20.938501710396256 16.68858127006755 2.346811410042618 0.0 0.0 0.0 -3.3277456897276645 -7.520390296756173 -5.766818582151284 0.0 0.0 0.0 88.62195263720373 -71.1537917429078 90.99561528867945 20.978374711637965 6.021056884029984e-06 0.00015674481380325469 0.010861176254654742 -1.1107036171931656e-05 -0.00012051146453813837 1.439432987852857 1.1493063384294255 7.615876073827755 25.043384912502866 -18.064563686350215 48.99096202351366 -29.39204659881688 -9.595571266035643 31.38467557130761 0.0 0.0 0.0 0.0 0.0 0.0 -0.10591550255137859 -1.5138554532579493 -4.2758852624058274 -1.157163093019066 0.2702269540124714 -3.3425436606935715 0.0 0.0 0.0 -6.8878399892644975 -4.279186223017894 -3.7037506396898356 0.0 0.0 0.0 -10.283358262809745 -5.680286823851667 -4.341840969263445 9.320859830417076 3.587391591799293 -2.400189722040953 0.0 0.0 0.0 -1.8982770635525812 -7.708209338652396 -3.4433325681942297 0.0 0.0 -1.3290839589869996e-06 -13.708511400326532 -7.363475019916047 -3.720941675297575 12.837750811741014 5.044121108894575 -2.3507804651968724 0.0 0.0 0.0 0.06481549414453701 2.682226118101061 2.5304735864623527 0.0 0.0 0.0 -19.878294645279492 -20.405442275896963 -4.104290565331174 20.78269296729674 16.558463282143244 3.1608742929679403 0.0 0.0 0.0 -3.536849329772013 -7.289565745173397 -5.728203198427997 0.0 0.0 0.0 178.91163142541416 0.1713270062277107 -0.00022317457578732678 0.0012152274193119967 1.3253584844493018e-05 0.00016698836143346667 -68.4870940879687 4.827678061128672e-05 -1.0732064743156042 -5.26936179607587 1.541662470961689 2.1467118140715384 -1.000000829595506 0.0 0.0 -1.0883647280481656 -0.1713326541701069 -0.00039212605439688415 0.0012099810185316371 -1.8503071231885487e-06 0.0004014635570356067 -68.48709268853499 -6.683621860625413e-06 -1.0732359509195777 -5.194557586831496 0.628677668522851 1.6631763963832205 -1.000000348796215 0.0 0.0
0.0 0.0 0.0 0.0 0.0 0.0 90.17133356325002 -1.0877675693422233 90.00000000000003 0.29828457157362726 -0.11038293762590377 0.03954168686131545 -10.502881315784622 -0.4705557139050183 -0.025222613763319437 9.564471719080252 0.09312541160985854 -2.082125010081093 19.653774246856134 -0.15397472616607993 2.6651774390527816 -2.4768712980935996 -0.6715457948408774 0.04117503231514606 -24.156804243159616 0.04246279485639823 -0.5295281078682991 -1.6879927175180281e-06 -8.428644745501082e-15 -8.590059974398887e-15 -1.6886716270334113e-06 -5.13567925937809e-13 1.8872150515251107e-12 -1.688671635551778e-06 -5.088887213339611e-13 1.8797078242441466e-12 -1.688671635551778e-06 -5.088887213339611e-13 1.8797078242441466e-12 -89.68273369243764 -66.87415133308546 89.18114386722972 20.97863782586216 1.2219538413547053e-05 0.0005492514956957141 0.010327661645971951 -2.3819256351175822e-05 -0.00048716997877000214 1.4397028733272499 1.1493135690103664 7.615850393025106 24.18754792360579 -17.862027256216923 49.08976789067286 -28.690670690408467 -9.093979825073507 31.29385152424537 0.0 0.0 0.0 0.0 0.0 0.0 -0.6097740758785677 -1.7956507789086564 -3.889339460106648 -0.6372837649520622 0.5095936451258372 -3.7183377295311986 0.0 0.0 0.0 -6.465959464130059 -4.10364185692941 -3.6619846281510715 0.0 0.0 0.0 -10.634525927649836 -5.686969230234066 -3.5655986660022463 9.623231547049484 3.6922223272205104 -3.1358933357591576 0.0 0.0 0.0 -2.117661995671259 -7.787209445456547 -3.476572841507625 0.0 0.0 0.0 -13.982705563490944 -7.15019637341256 -2.875053467184348 13.023036015061491 5.0028728613806965 -3.1958523161514583 0.0 0.0 0.0 -0.04696983996609891 2.686896219588593 2.499143237695963 0.0 0.0 0.0 -20.302579957607737 -20.27427317940608 -3.181567788425659 20.938501710396256 16.68858127006755 2.346811410042618 0.0 0.0 0.0 -3.3277456897276645 -7.520390296756173 -5.766818582151284 0.0 0.0 0.0 88.62195263720373 -71.1537917429078 90.99561528867945 20.978374711637965 6.021056884029984e-06 0.00015674481380325469 0.010861176254654742 -1.1107036171931656e-05 -0.00012051146453813837 1.439432987852857 1.1493063384294255 7.615876073827755 25.043384912502866 -18.064563686350215 48.99096202351366 -29.39204659881688 -9.595571266035643 31.38467557130761 0.0 0.0 0.0 0.0 0.0 0.0 -0.10591550255137859 -1.5138554532579493 -4.2758852624058274 -1.157163093019066 0.2702269540124714 -3.3425436606935715 0.0 0.0 0.0 -6.8878399892644975 -4.279186223017894 -3.7037506396898356 0.0 0.0 0.0 -10.283358262809745 -5.680286823851667 -4.341840969263445 9.320859830417076 3.587391591799293 -2.400189722040953 0.0 0.0 0.0 -1.8982770635525812 -7.708209338652396 -3.4433325681942297 0.0 0.0 -1.3290839589869996e-06 -13.708511400326532 -7.363475019916047 -3.720941675297575 12.837750811741014 5.044121108894575 -2.3507804651968724 0.0 0.0 0.0 0.06481549414453701 2.682226118101061 2.5304735864623527 0.0 0.0 0.0 -19.878294645279492 -20.405442275896963 -4.104290565331174 20.78269296729674 16.558463282143244 3.1608742929679403 0.0 0.0 0.0 -3.536849329772013 -7.289565745173397 -5.728203198427997 0.0 0.0 0.0 178.91163142541416 0.1713270062277107 -0.00022317457578732678 0.0012152274193119967 1.3253584844493018e-05 0.00016698836143346667 -68.4870940879687 4.827678061128672e-05 -1.0732064743156042 -5.26936179607587 1.541662470961689 2.1467118140715384 -1.000000829595506 0.0 0.0 -1.0883647280481656 -0.1713326541701069 -0.00039212605439688415 0.0012099810185316371 -1.8503071231885487e-06 0.0004014635570356067 -68.48709268853499 -6.683621860625413e-06 -1.0732359509195777 -5.194557586831496 0.628677668522851 1.6631763963832205 -1.000000348796215 0.0 0.0
